QB50P1                  
1 40025U 14033R   26062.90332399  .00014367  00000+0  74272-3 0  9991
2 40025  98.0997  66.7953 0007737 216.5301 143.5403 15.16365653637066
DTUSAT-2                
1 40030U 14033W   26062.51068704  .00010845  00000+0  61098-3 0  9999
2 40030  98.0839  53.6720 0006485 227.3263 132.7421 15.13390777636690
QB50P2                  
1 40032U 14033Y   26062.91188218  .00013188  00000+0  73872-3 0  9994
2 40032  98.0725  53.3824 0007968 159.9776 200.1768 15.13535092636734
PERSEUS-M1              
1 40039U 14033AF  26062.78506055  .00003842  00000+0  35462-3 0  9998
2 40039  97.9552   5.2819 0010001 290.8329  69.1820 14.95215520634884
POLYITAN-1              
1 40042U 14033AJ  26062.52418436  .00026616  00000+0  93821-3 0  9996
2 40042  98.1046  79.0575 0008872 145.7003 214.4810 15.29223770637428
TIGRISAT                
1 40043U 14033AK  26062.65926163  .00003270  00000+0  38381-3 0  9993
2 40043  97.7658 215.2119 0050719  61.7673 298.8649 14.84689030629969
AISAT                   
1 40054U 14034B   26063.17441777  .00017783  00000+0  12042-2 0  9996
2 40054  98.2461 328.0842 0008366 206.8645 153.2148 15.06534397631384
CANX-4                  
1 40055U 14034C   26063.10350140  .00001627  00000+0  21693-3 0  9996
2 40055  98.3286 294.4765 0012721 354.7487   5.3588 14.81045171628973
CANX-5                  
1 40056U 14034D   26063.10313730  .00001639  00000+0  21838-3 0  9995
2 40056  98.3289 294.5136 0012729 354.9494   5.1587 14.81061928619782
VELOX-I                 
1 40057U 14034E   26063.14364111  .00007381  00000+0  65012-3 0  9991
2 40057  98.2656 322.2289 0005534 258.9641 101.0956 14.96782815630882
GONETS-M 10             
1 40063U 14036C   26063.18753828 -.00000030  00000+0 -28712-3 0  9993
2 40063  82.5151  12.8840 0022489  13.8614 346.3078 12.42942036529200
METEOR-M 2              
1 40069U 14037A   26063.12242422  .00000522  00000+0  25796-3 0  9990
2 40069  98.5011  42.6388 0005702 354.2740   5.8371 14.21427197604399
DX1                     
1 40071U 14037C   26063.18346022  .00002413  00000+0  25920-3 0  9990
2 40071  98.3758  18.6193 0005706 253.0005 107.0586 14.89591666630477
UKUBE-1                 
1 40074U 14037F   26062.52777409  .00014194  00000+0  83870-3 0  9994
2 40074  98.4220  54.8631 0002618 118.8048 241.3443 15.11623330632586
GAOFEN-2                
1 40118U 14049A   26063.17184550  .00000261  00000+0  40839-4 0  9996
2 40118  98.0240 127.4319 0006652 204.4821 155.6076 14.80759331623693
BRITE-PL2 (HEWELIUSZ)   
1 40119U 14049B   26062.77989302  .00003666  00000+0  34734-3 0  9998
2 40119  97.8981 174.0764 0015504  99.5590 260.7382 14.94142812625704
CBERS 4                 
1 40336U 14079A   26063.20640986  .00000105  00000+0  51163-4 0  9994
2 40336  98.3498 123.3949 0000784  54.8928 305.2331 14.35410996588892
